{
  "type": "FeatureCollection",
  "features": [
    {
      "type": "Feature",
      "properties": {
        "norad_id": 35062,
        "name": "COSMOS 2251 DEB",
        "group": "cosmos-2251-debris",
        "lat": 46.090652469057346,
        "lon": -94.13388699209722,
        "alt_km": 728.8891501267135,
        "timestamp": "2025-12-07T05:38:10.299537+00:00",
        "meta_object_name": "COSMOS 2251 DEB",
        "meta_object_id": "1993-036AHR",
        "meta_epoch": "2025-12-06T02:01:54.253344",
        "meta_mean_motion": 14.22846958,
        "meta_eccentricity": 0.01280925,
        "meta_inclination": 74.0788,
        "meta_ra_of_asc_node": 105.1759,
        "meta_arg_of_pericenter": 106.8523,
        "meta_mean_anomaly": 254.6716,
        "meta_ephemeris_type": 0,
        "meta_classification_type": "U",
        "meta_norad_cat_id": 35062,
        "meta_element_set_no": 999,
        "meta_rev_at_epoch": 85404,
        "meta_bstar": 0.0030644191,
        "meta_mean_motion_dot": 7.469e-05,
        "meta_mean_motion_ddot": 0,
        "tle_line1": "1 35062U 93036AHR 25340.08465571  .00007469  00000+0  30644-2 0  9991",
        "tle_line2": "2 35062  74.0788 105.1759 0128092 106.8523 254.6716 14.22846958854048"
      },
      "geometry": {
        "type": "Point",
        "coordinates": [
          -94.13388699209722,
          46.090652469057346
        ]
      }
    },
    {
      "type": "Feature",
      "properties": {
        "norad_id": 35065,
        "name": "COSMOS 2251 DEB",
        "group": "cosmos-2251-debris",
        "lat": 73.5999197782591,
        "lon": -78.58039432216404,
        "alt_km": 738.4023760501213,
        "timestamp": "2025-12-07T05:38:10.299547+00:00",
        "meta_object_name": "COSMOS 2251 DEB",
        "meta_object_id": "1993-036AHU",
        "meta_epoch": "2025-12-05T21:41:03.860160",
        "meta_mean_motion": 14.45696164,
        "meta_eccentricity": 0.00196068,
        "meta_inclination": 74.0203,
        "meta_ra_of_asc_node": 207.0973,
        "meta_arg_of_pericenter": 333.182,
        "meta_mean_anomaly": 26.8323,
        "meta_ephemeris_type": 0,
        "meta_classification_type": "U",
        "meta_norad_cat_id": 35065,
        "meta_element_set_no": 999,
        "meta_rev_at_epoch": 68252,
        "meta_bstar": 0.00075039206,
        "meta_mean_motion_dot": 2.636e-05,
        "meta_mean_motion_ddot": 0,
        "tle_line1": "1 35065U 93036AHU 25339.90351690  .00002636  00000+0  75039-3 0  9998",
        "tle_line2": "2 35065  74.0203 207.0973 0019606 333.1820  26.8323 14.45696164682520"
      },
      "geometry": {
        "type": "Point",
        "coordinates": [
          -78.58039432216404,
          73.5999197782591
        ]
      }
    },
    {
      "type": "Feature",
      "properties": {
        "norad_id": 35071,
        "name": "COSMOS 2251 DEB",
        "group": "cosmos-2251-debris",
        "lat": -60.0218989986388,
        "lon": 34.73494235328693,
        "alt_km": 608.3911179600145,
        "timestamp": "2025-12-07T05:38:10.299557+00:00",
        "meta_object_name": "COSMOS 2251 DEB",
        "meta_object_id": "1993-036AJA",
        "meta_epoch": "2025-12-06T06:11:48.969024",
        "meta_mean_motion": 15.03269957,
        "meta_eccentricity": 0.00683754,
        "meta_inclination": 73.9314,
        "meta_ra_of_asc_node": 186.7627,
        "meta_arg_of_pericenter": 85.1943,
        "meta_mean_anomaly": 275.7048,
        "meta_ephemeris_type": 0,
        "meta_classification_type": "U",
        "meta_norad_cat_id": 35071,
        "meta_element_set_no": 999,
        "meta_rev_at_epoch": 67439,
        "meta_bstar": 0.0011992827,
        "meta_mean_motion_dot": 0.00017109,
        "meta_mean_motion_ddot": 0,
        "tle_line1": "1 35071U 93036AJA 25340.25820566  .00017109  00000+0  11993-2 0  9997",
        "tle_line2": "2 35071  73.9314 186.7627 0068375  85.1943 275.7048 15.03269957674390"
      },
      "geometry": {
        "type": "Point",
        "coordinates": [
          34.73494235328693,
          -60.0218989986388
        ]
      }
    },
    {
      "type": "Feature",
      "properties": {
        "norad_id": 35073,
        "name": "COSMOS 2251 DEB",
        "group": "cosmos-2251-debris",
        "lat": 48.60427847671603,
        "lon": 0.7925107211550108,
        "alt_km": 555.7868841624522,
        "timestamp": "2025-12-07T05:38:10.299567+00:00",
        "meta_object_name": "COSMOS 2251 DEB",
        "meta_object_id": "1993-036AJC",
        "meta_epoch": "2025-12-06T06:59:58.933248",
        "meta_mean_motion": 14.99991639,
        "meta_eccentricity": 0.00102924,
        "meta_inclination": 74.0009,
        "meta_ra_of_asc_node": 343.7168,
        "meta_arg_of_pericenter": 84.8418,
        "meta_mean_anomaly": 275.3943,
        "meta_ephemeris_type": 0,
        "meta_classification_type": "U",
        "meta_norad_cat_id": 35073,
        "meta_element_set_no": 999,
        "meta_rev_at_epoch": 67382,
        "meta_bstar": 0.0044204403,
        "meta_mean_motion_dot": 0.00055435,
        "meta_mean_motion_ddot": 0,
        "tle_line1": "1 35073U 93036AJC 25340.29165432  .00055435  00000+0  44204-2 0  9992",
        "tle_line2": "2 35073  74.0009 343.7168 0010292  84.8418 275.3943 14.99991639673828"
      },
      "geometry": {
        "type": "Point",
        "coordinates": [
          0.7925107211550108,
          48.60427847671603
        ]
      }
    },
    {
      "type": "Feature",
      "properties": {
        "norad_id": 35284,
        "name": "COSMOS 2251 DEB",
        "group": "cosmos-2251-debris",
        "lat": -67.05347284276601,
        "lon": -127.93730266063825,
        "alt_km": 766.0421387756987,
        "timestamp": "2025-12-07T05:38:10.299577+00:00",
        "meta_object_name": "COSMOS 2251 DEB",
        "meta_object_id": "1993-036AJN",
        "meta_epoch": "2025-12-06T14:07:12.355680",
        "meta_mean_motion": 14.38306996,
        "meta_eccentricity": 0.00165553,
        "meta_inclination": 74.0489,
        "meta_ra_of_asc_node": 275.7489,
        "meta_arg_of_pericenter": 353.4486,
        "meta_mean_anomaly": 187.2786,
        "meta_ephemeris_type": 0,
        "meta_classification_type": "U",
        "meta_norad_cat_id": 35284,
        "meta_element_set_no": 999,
        "meta_rev_at_epoch": 65437,
        "meta_bstar": 0.00034127282,
        "meta_mean_motion_dot": 1.014e-05,
        "meta_mean_motion_ddot": 0,
        "tle_line1": "1 35284U 93036AJN 25340.58833745  .00001014  00000+0  34127-3 0  9995",
        "tle_line2": "2 35284  74.0489 275.7489 0016555 353.4486 187.2786 14.38306996654376"
      },
      "geometry": {
        "type": "Point",
        "coordinates": [
          -127.93730266063825,
          -67.05347284276601
        ]
      }
    },
    {
      "type": "Feature",
      "properties": {
        "norad_id": 35287,
        "name": "COSMOS 2251 DEB",
        "group": "cosmos-2251-debris",
        "lat": 37.00740230665235,
        "lon": 93.78633569371128,
        "alt_km": 773.0457787100831,
        "timestamp": "2025-12-07T05:38:10.299587+00:00",
        "meta_object_name": "COSMOS 2251 DEB",
        "meta_object_id": "1993-036AJR",
        "meta_epoch": "2025-12-06T14:46:42.553056",
        "meta_mean_motion": 14.36367824,
        "meta_eccentricity": 0.0017303,
        "meta_inclination": 74.0302,
        "meta_ra_of_asc_node": 287.3886,
        "meta_arg_of_pericenter": 25.7968,
        "meta_mean_anomaly": 155.294,
        "meta_ephemeris_type": 0,
        "meta_classification_type": "U",
        "meta_norad_cat_id": 35287,
        "meta_element_set_no": 999,
        "meta_rev_at_epoch": 86804,
        "meta_bstar": 0.00028116619,
        "meta_mean_motion_dot": 7.98e-06,
        "meta_mean_motion_ddot": 0,
        "tle_line1": "1 35287U 93036AJR 25340.61577029  .00000798  00000+0  28117-3 0  9992",
        "tle_line2": "2 35287  74.0302 287.3886 0017303  25.7968 155.2940 14.36367824868042"
      },
      "geometry": {
        "type": "Point",
        "coordinates": [
          93.78633569371128,
          37.00740230665235
        ]
      }
    },
    {
      "type": "Feature",
      "properties": {
        "norad_id": 35288,
        "name": "COSMOS 2251 DEB",
        "group": "cosmos-2251-debris",
        "lat": 69.12819479122514,
        "lon": 74.84878248959946,
        "alt_km": 696.6991291094191,
        "timestamp": "2025-12-07T05:38:10.299597+00:00",
        "meta_object_name": "COSMOS 2251 DEB",
        "meta_object_id": "1993-036AJS",
        "meta_epoch": "2025-12-05T20:30:59.855616",
        "meta_mean_motion": 14.65344236,
        "meta_eccentricity": 0.00396154,
        "meta_inclination": 73.9509,
        "meta_ra_of_asc_node": 28.4958,
        "meta_arg_of_pericenter": 262.8912,
        "meta_mean_anomaly": 96.775,
        "meta_ephemeris_type": 0,
        "meta_classification_type": "U",
        "meta_norad_cat_id": 35288,
        "meta_element_set_no": 999,
        "meta_rev_at_epoch": 87777,
        "meta_bstar": 0.0019659658,
        "meta_mean_motion_dot": 0.00010724,
        "meta_mean_motion_ddot": 0,
        "tle_line1": "1 35288U 93036AJS 25339.85485944  .00010724  00000+0  19660-2 0  9993",
        "tle_line2": "2 35288  73.9509  28.4958 0039615 262.8912  96.7750 14.65344236877779"
      },
      "geometry": {
        "type": "Point",
        "coordinates": [
          74.84878248959946,
          69.12819479122514
        ]
      }
    }
  ]
}